{
  "type": "FeatureCollection",
  "features": [
    {
      "type": "Feature",
      "properties": {
        "norad_id": 31477,
        "name": "FENGYUN 1C DEB",
        "group": "fengyun-1c-debris",
        "lat": 11.808265493561416,
        "lon": 158.80506927747757,
        "alt_km": 946.2638366802385,
        "timestamp": "2025-12-13T05:42:57.842390+00:00",
        "meta_object_name": "FENGYUN 1C DEB",
        "meta_object_id": "1999-025BVR",
        "meta_epoch": "2025-12-11T22:06:54.803232",
        "meta_mean_motion": 14.02921572,
        "meta_eccentricity": 0.0110213,
        "meta_inclination": 98.8853,
        "meta_ra_of_asc_node": 335.6458,
        "meta_arg_of_pericenter": 31.1713,
        "meta_mean_anomaly": 329.593,
        "meta_ephemeris_type": 0,
        "meta_classification_type": "U",
        "meta_norad_cat_id": 31477,
        "meta_element_set_no": 999,
        "meta_rev_at_epoch": 95392,
        "meta_bstar": 0.0003702,
        "meta_mean_motion_dot": 5.63e-06,
        "meta_mean_motion_ddot": 0,
        "tle_line1": "1 31477U 99025BVR 25345.92146763  .00000563  00000+0  37020-3 0  9992",
        "tle_line2": "2 31477  98.8853 335.6458 0110213  31.1713 329.5930 14.02921572953925"
      },
      "geometry": {
        "type": "Point",
        "coordinates": [
          158.80506927747757,
          11.808265493561416
        ]
      }
    },
    {
      "type": "Feature",
      "properties": {
        "norad_id": 31480,
        "name": "FENGYUN 1C DEB",
        "group": "fengyun-1c-debris",
        "lat": 13.331833749578461,
        "lon": 20.344688856185826,
        "alt_km": 774.731198423885,
        "timestamp": "2025-12-13T05:42:57.842402+00:00",
        "meta_object_name": "FENGYUN 1C DEB",
        "meta_object_id": "1999-025BVU",
        "meta_epoch": "2025-12-11T13:09:10.099584",
        "meta_mean_motion": 13.89903318,
        "meta_eccentricity": 0.03451376,
        "meta_inclination": 98.3381,
        "meta_ra_of_asc_node": 196.8343,
        "meta_arg_of_pericenter": 224.7127,
        "meta_mean_anomaly": 132.5732,
        "meta_ephemeris_type": 0,
        "meta_classification_type": "U",
        "meta_norad_cat_id": 31480,
        "meta_element_set_no": 999,
        "meta_rev_at_epoch": 93379,
        "meta_bstar": 0.0048624139,
        "meta_mean_motion_dot": 9.649e-05,
        "meta_mean_motion_ddot": 0,
        "tle_line1": "1 31480U 99025BVU 25345.54803356  .00009649  00000+0  48624-2 0  9997",
        "tle_line2": "2 31480  98.3381 196.8343 0345137 224.7127 132.5732 13.89903318933791"
      },
      "geometry": {
        "type": "Point",
        "coordinates": [
          20.344688856185826,
          13.331833749578461
        ]
      }
    },
    {
      "type": "Feature",
      "properties": {
        "norad_id": 31482,
        "name": "FENGYUN 1C DEB",
        "group": "fengyun-1c-debris",
        "lat": -40.481340593388424,
        "lon": -1.6892569304784366,
        "alt_km": 729.2666875932628,
        "timestamp": "2025-12-13T05:42:57.842414+00:00",
        "meta_object_name": "FENGYUN 1C DEB",
        "meta_object_id": "1999-025BVW",
        "meta_epoch": "2025-12-11T07:08:31.579008",
        "meta_mean_motion": 14.35648587,
        "meta_eccentricity": 0.00888249,
        "meta_inclination": 98.383,
        "meta_ra_of_asc_node": 349.194,
        "meta_arg_of_pericenter": 286.624,
        "meta_mean_anomaly": 87.9915,
        "meta_ephemeris_type": 0,
        "meta_classification_type": "U",
        "meta_norad_cat_id": 31482,
        "meta_element_set_no": 999,
        "meta_rev_at_epoch": 97109,
        "meta_bstar": 0.0013328779,
        "meta_mean_motion_dot": 3.979e-05,
        "meta_mean_motion_ddot": 0,
        "tle_line1": "1 31482U 99025BVW 25345.29758772  .00003979  00000+0  13329-2 0  9996",
        "tle_line2": "2 31482  98.3830 349.1940 0088824 286.6240  87.9915 14.35648587971095"
      },
      "geometry": {
        "type": "Point",
        "coordinates": [
          -1.6892569304784366,
          -40.481340593388424
        ]
      }
    },
    {
      "type": "Feature",
      "properties": {
        "norad_id": 31483,
        "name": "FENGYUN 1C DEB",
        "group": "fengyun-1c-debris",
        "lat": 46.90672320826836,
        "lon": 131.42776576399356,
        "alt_km": 830.9800169811324,
        "timestamp": "2025-12-13T05:42:57.842425+00:00",
        "meta_object_name": "FENGYUN 1C DEB",
        "meta_object_id": "1999-025BVX",
        "meta_epoch": "2025-12-11T14:57:07.383168",
        "meta_mean_motion": 14.16014051,
        "meta_eccentricity": 0.01187327,
        "meta_inclination": 102.5034,
        "meta_ra_of_asc_node": 295.4491,
        "meta_arg_of_pericenter": 223.8811,
        "meta_mean_anomaly": 319.3347,
        "meta_ephemeris_type": 0,
        "meta_classification_type": "U",
        "meta_norad_cat_id": 31483,
        "meta_element_set_no": 999,
        "meta_rev_at_epoch": 94690,
        "meta_bstar": 0.004812358,
        "meta_mean_motion_dot": 0.0001011,
        "meta_mean_motion_ddot": 0,
        "tle_line1": "1 31483U 99025BVX 25345.62300212  .00010110  00000+0  48124-2 0  9992",
        "tle_line2": "2 31483 102.5034 295.4491 0118732 223.8811 319.3347 14.16014051946908"
      },
      "geometry": {
        "type": "Point",
        "coordinates": [
          131.42776576399356,
          46.90672320826836
        ]
      }
    },
    {
      "type": "Feature",
      "properties": {
        "norad_id": 31484,
        "name": "FENGYUN 1C DEB",
        "group": "fengyun-1c-debris",
        "lat": -37.61751760047971,
        "lon": 94.54999008867719,
        "alt_km": 707.8204984076583,
        "timestamp": "2025-12-13T05:42:57.842438+00:00",
        "meta_object_name": "FENGYUN 1C DEB",
        "meta_object_id": "1999-025BVY",
        "meta_epoch": "2025-12-10T07:10:50.894688",
        "meta_mean_motion": 14.50258129,
        "meta_eccentricity": 0.0082922,
        "meta_inclination": 101.8042,
        "meta_ra_of_asc_node": 279.7183,
        "meta_arg_of_pericenter": 158.6379,
        "meta_mean_anomaly": 201.8297,
        "meta_ephemeris_type": 0,
        "meta_classification_type": "U",
        "meta_norad_cat_id": 31484,
        "meta_element_set_no": 999,
        "meta_rev_at_epoch": 64202,
        "meta_bstar": 0.0073567,
        "meta_mean_motion_dot": 0.00030002,
        "meta_mean_motion_ddot": 0,
        "tle_line1": "1 31484U 99025BVY 25344.29920017  .00030002  00000+0  73567-2 0  9997",
        "tle_line2": "2 31484 101.8042 279.7183 0082922 158.6379 201.8297 14.50258129642027"
      },
      "geometry": {
        "type": "Point",
        "coordinates": [
          94.54999008867719,
          -37.61751760047971
        ]
      }
    },
    {
      "type": "Feature",
      "properties": {
        "norad_id": 31485,
        "name": "FENGYUN 1C DEB",
        "group": "fengyun-1c-debris",
        "lat": 64.05430946480224,
        "lon": 22.251615669036042,
        "alt_km": 1402.2599702338493,
        "timestamp": "2025-12-13T05:42:57.842449+00:00",
        "meta_object_name": "FENGYUN 1C DEB",
        "meta_object_id": "1999-025BVZ",
        "meta_epoch": "2025-12-10T10:51:19.342080",
        "meta_mean_motion": 13.40027738,
        "meta_eccentricity": 0.04458594,
        "meta_inclination": 102.7187,
        "meta_ra_of_asc_node": 171.1002,
        "meta_arg_of_pericenter": 323.8485,
        "meta_mean_anomaly": 33.3238,
        "meta_ephemeris_type": 0,
        "meta_classification_type": "U",
        "meta_norad_cat_id": 31485,
        "meta_element_set_no": 999,
        "meta_rev_at_epoch": 90414,
        "meta_bstar": 0.0039196395,
        "meta_mean_motion_dot": 3.758e-05,
        "meta_mean_motion_ddot": 0,
        "tle_line1": "1 31485U 99025BVZ 25344.45230720  .00003758  00000+0  39196-2 0  9999",
        "tle_line2": "2 31485 102.7187 171.1002 0445859 323.8485  33.3238 13.40027738904144"
      },
      "geometry": {
        "type": "Point",
        "coordinates": [
          22.251615669036042,
          64.05430946480224
        ]
      }
    },
    {
      "type": "Feature",
      "properties": {
        "norad_id": 31487,
        "name": "FENGYUN 1C DEB",
        "group": "fengyun-1c-debris",
        "lat": -26.263574501354537,
        "lon": 162.11203529977197,
        "alt_km": 829.6055089591164,
        "timestamp": "2025-12-13T05:42:57.842462+00:00",
        "meta_object_name": "FENGYUN 1C DEB",
        "meta_object_id": "1999-025BWB",
        "meta_epoch": "2025-12-09T17:44:32.604000",
        "meta_mean_motion": 13.97711956,
        "meta_eccentricity": 0.01202997,
        "meta_inclination": 102.4139,
        "meta_ra_of_asc_node": 151.1598,
        "meta_arg_of_pericenter": 313.5334,
        "meta_mean_anomaly": 61.6285,
        "meta_ephemeris_type": 0,
        "meta_classification_type": "U",
        "meta_norad_cat_id": 31487,
        "meta_element_set_no": 999,
        "meta_rev_at_epoch": 94370,
        "meta_bstar": 0.0022584983,
        "meta_mean_motion_dot": 3.321e-05,
        "meta_mean_motion_ddot": 0,
        "tle_line1": "1 31487U 99025BWB 25343.73926625  .00003321  00000+0  22585-2 0  9997",
        "tle_line2": "2 31487 102.4139 151.1598 0120299 313.5334  61.6285 13.97711956943700"
      },
      "geometry": {
        "type": "Point",
        "coordinates": [
          162.11203529977197,
          -26.263574501354537
        ]
      }
    }
  ]
}